GLOBALSTAR M067         
1 32263U 07048A   24301.41362792 -.00000071  00000+0  19651-3 0  9992
2 32263  51.9755 357.0403 0000966 184.7894 189.3015 12.40658132780592
GLOBALSTAR M070         
1 32264U 07048B   24301.91652532 -.00000059  00000+0  25054-3 0  9992
2 32264  51.9727 116.0855 0000765  84.1218  65.7947 12.62304107784337
GLOBALSTAR M066         
1 32265U 07048C   24301.90679479 -.00000052  00000+0  33157-3 0  9997
2 32265  51.9693 342.6627 0000350 174.8285 357.1396 12.42164086786511
GLOBALSTAR M068         
1 32266U 07048D   24301.92012291 -.00000038  00000+0  36633-3 0  9999
2 32266  51.9887 290.2751 0001135   4.7649  28.7154 12.62805261788211
GLOBALSTAR M079         
1 37188U 10054A   24301.94184701 -.00000066  00000+0  20808-3 0  9994
2 37188  52.0012 126.7788 0001155 101.8638  11.2293 12.62266422647128
GLOBALSTAR M074         
1 37189U 10054B   24301.97760859 -.00000078  00000+0  14472-3 0  9995
2 37189  51.9989 126.0243 0000759  96.0115  62.1241 12.62258299647731
GLOBALSTAR M076         
1 37190U 10054C   24301.91218152 -.00000042  00000+0  34633-3 0  9997
2 37190  52.0003 126.3794 0000893 114.7269 342.2207 12.62272858647442
GLOBALSTAR M077         
1 37191U 10054D   24301.83155619 -.00000077  00000+0  14864-3 0  9999
2 37191  52.0066  83.4107 0000797 103.6329  47.5497 12.62265979647802
